[{"OBJECT_NAME":"BRITE-AUSTRIA","OBJECT_ID":"2013-009F","EPOCH":"2026-03-09T11:09:59.101632","MEAN_MOTION":14.3649602,"ECCENTRICITY":0.00103487,"INCLINATION":98.3955,"RA_OF_ASC_NODE":250.3783,"ARG_OF_PERICENTER":171.7863,"MEAN_ANOMALY":188.3495,"EPHEMERIS_TYPE":0,"CLASSIFICATION_TYPE":"U","NORAD_CAT_ID":39091,"ELEMENT_SET_NO":999,"REV_AT_EPOCH":68273,"BSTAR":0.00011657143,"MEAN_MOTION_DOT":3.0e-6,"MEAN_MOTION_DDOT":0},{"OBJECT_NAME":"DELTA 1 DEB","OBJECT_ID":"1975-004BA","EPOCH":"2026-03-09T21:44:27.682944","MEAN_MOTION":14.28204963,"ECCENTRICITY":0.01318414,"INCLINATION":97.6418,"RA_OF_ASC_NODE":43.185,"ARG_OF_PERICENTER":31.0258,"MEAN_ANOMALY":329.8628,"EPHEMERIS_TYPE":0,"CLASSIFICATION_TYPE":"U","NORAD_CAT_ID":8968,"ELEMENT_SET_NO":999,"REV_AT_EPOCH":59420,"BSTAR":0.00041406845,"MEAN_MOTION_DOT":1.096e-5,"MEAN_MOTION_DDOT":0}]
